{
    "links": {
        "self": "http://www.neowsapp.com/rest/v1/neo/3601297?api_key=iIulBulltgU6a56xZRHN4H3l9WmuAYTsLGpBGhQ2"
    },
    "id": "3601297",
    "neo_reference_id": "3601297",
    "name": "(2012 EJ8)",
    "designation": "2012 EJ8",
    "nasa_jpl_url": "http://ssd.jpl.nasa.gov/sbdb.cgi?sstr=3601297",
    "absolute_magnitude_h": 24.0,
    "estimated_diameter": {
        "kilometers": {
            "estimated_diameter_min": 0.0421264611,
            "estimated_diameter_max": 0.0941976306
        },
        "meters": {
            "estimated_diameter_min": 42.1264610556,
            "estimated_diameter_max": 94.1976305719
        },
        "miles": {
            "estimated_diameter_min": 0.0261761612,
            "estimated_diameter_max": 0.0585316759
        },
        "feet": {
            "estimated_diameter_min": 138.2101784897,
            "estimated_diameter_max": 309.0473542854
        }
    },
    "is_potentially_hazardous_asteroid": false,
    "close_approach_data": [
        {
            "close_approach_date": "1945-02-27",
            "close_approach_date_full": "1945-Feb-27 01:54",
            "epoch_date_close_approach": -783986760000,
            "relative_velocity": {
                "kilometers_per_second": "17.7041701056",
                "kilometers_per_hour": "63735.0123803123",
                "miles_per_hour": "39602.4581093113"
            },
            "miss_distance": {
                "astronomical": "0.1758114461",
                "lunar": "68.3906525329",
                "kilometers": "26301017.858179807",
                "miles": "16342694.6762510566"
            },
            "orbiting_body": "Earth"
        },
        {
            "close_approach_date": "2002-08-03",
            "close_approach_date_full": "2002-Aug-03 15:35",
            "epoch_date_close_approach": 1028388900000,
            "relative_velocity": {
                "kilometers_per_second": "19.766442554",
                "kilometers_per_hour": "71159.1931944709",
                "miles_per_hour": "44215.5553490867"
            },
            "miss_distance": {
                "astronomical": "0.1174701058",
                "lunar": "45.6958711562",
                "kilometers": "17573277.616354646",
                "miles": "10919528.3655442748"
            },
            "orbiting_body": "Earth"
        },
        {
            "close_approach_date": "2012-03-06",
            "close_approach_date_full": "2012-Mar-06 08:02",
            "epoch_date_close_approach": 1331020920000,
            "relative_velocity": {
                "kilometers_per_second": "22.0609255395",
                "kilometers_per_hour": "79419.3319423134",
                "miles_per_hour": "49348.084339378"
            },
            "miss_distance": {
                "astronomical": "0.0592638982",
                "lunar": "23.0536563998",
                "kilometers": "8865752.938616834",
                "miles": "5508923.4238829492"
            },
            "orbiting_body": "Earth"
        },
        {
            "close_approach_date": "2071-08-10",
            "close_approach_date_full": "2071-Aug-10 03:39",
            "epoch_date_close_approach": 3206403540000,
            "relative_velocity": {
                "kilometers_per_second": "16.5849718759",
                "kilometers_per_hour": "59705.8987532216",
                "miles_per_hour": "37098.9235891893"
            },
            "miss_distance": {
                "astronomical": "0.2183488047",
                "lunar": "84.9376850283",
                "kilometers": "32664516.100165989",
                "miles": "20296789.1300250882"
            },
            "orbiting_body": "Earth"
        }
    ],
    "orbital_data": {
        "orbit_id": "4",
        "orbit_determination_date": "2017-04-06 08:50:33",
        "first_observation_date": "2012-03-14",
        "last_observation_date": "2012-03-15",
        "data_arc_in_days": 1,
        "observations_used": 29,
        "orbit_uncertainty": "9",
        "minimum_orbit_intersection": ".0553117",
        "jupiter_tisserand_invariant": "4.196",
        "epoch_osculation": "2456001.5",
        "eccentricity": ".7069633490831636",
        "semi_major_axis": "1.515401099289011",
        "inclination": "3.537848817404258",
        "ascending_node_longitude": "51.46068284175225",
        "orbital_period": "681.3806932840508",
        "perihelion_distance": ".4440680629313442",
        "perihelion_argument": "5.946759791834692",
        "aphelion_distance": "2.586734135646679",
        "perihelion_time": "2455944.443427397345",
        "mean_anomaly": "30.14521300560688",
        "mean_motion": ".5283390086456777",
        "equinox": "J2000",
        "orbit_class": {
            "orbit_class_type": "APO",
            "orbit_class_description": "Near-Earth asteroid orbits which cross the Earth’s orbit similar to that of 1862 Apollo",
            "orbit_class_range": "a (semi-major axis) > 1.0 AU; q (perihelion) < 1.017 AU"
        }
    },
    "is_sentry_object": false
}